SPACEMOBILE-004         
1 61049U 24163E   26193.00710093  .00011603  00000+0  53337-3 0  9991
2 61049  52.9667 194.7854 0006095 215.6608 144.3979 15.20795354101542
CZ-8A R/B               
1 66004U 25231K   26192.50811089 -.00000094  00000+0  24968-4 0  9997
2 66004  50.0050 295.8455 0116515 309.6324  49.4354 14.30161531 38423
SZ-21 MODULE            
1 66515U 25246C   26193.22249503  .00034298  00000+0  19171-3 0  9997
2 66515  41.4697 151.1451 0007591 200.3493 159.7051 15.78595026 37698
SPACEMOBILE-006         
1 67232U 25309A   26193.11775960  .00000291  00000+0  29209-4 0  9993
2 67232  52.9937 217.4329 0010353 205.0874 154.9618 15.18648870 30389
SPACEMOBILE-008         
1 69589U 26139A   26193.04775322 -.00000030  00000+0  15283-4 0  9995
2 69589  52.9943 149.6970 0004916  49.0948 311.0468 15.12799678  3743
SPACEMOBILE-009         
1 69590U 26139B   26193.31377425 -.00000079  00000+0  12560-4 0  9997
2 69590  52.9935 148.5032 0005169  45.2367 314.9044 15.12693068  3789
SPACEMOBILE-010         
1 69591U 26139C   26193.25048892 -.00000055  00000+0  13955-4 0  9997
2 69591  52.9941 148.8229 0005089  36.8911 323.2429 15.12524273  3781
